BEIDOU-2 IGSO-1 (C06)   
1 36828U 10036A   25332.95769134 -.00000033  00000+0  00000+0 0  9991
2 36828  54.2834 164.7738 0051245 215.7000 140.0675  1.00280069 56081
BEIDOU-2 G4 (C04)       
1 37210U 10057A   25333.82376275 -.00000090  00000+0  00000+0 0  9990
2 37210   3.1497  69.9703 0010680 187.1585 268.4639  1.00271745 55299
BEIDOU-2 IGSO-2 (C07)   
1 37256U 10068A   25333.75934366 -.00000221  00000+0  00000+0 0  9991
2 37256  47.9125 274.3115 0049444 216.4564 318.4665  1.00290379 54798
BEIDOU-2 IGSO-3 (C08)   
1 37384U 11013A   25333.87783674 -.00000194  00000+0  00000+0 0  9990
2 37384  62.1255  42.0418 0035665 186.0158 264.7363  1.00273417 53667
BEIDOU-2 IGSO-4 (C09)   
1 37763U 11038A   25332.52607030  .00000085  00000+0  00000+0 0  9998
2 37763  54.5801 167.4746 0148632 230.1967 313.2933  1.00284857 52633
BEIDOU-2 IGSO-5 (C10)   
1 37948U 11073A   25333.81032932 -.00000166  00000+0  00000+0 0  9999
2 37948  48.0464 274.0190 0110906 222.2939 316.5119  1.00293473 51133
BEIDOU-2 G5 (C05)       
1 38091U 12008A   25333.87506973  .00000079  00000+0  00000+0 0  9997
2 38091   3.0743  70.7453 0012009 225.2491 146.7458  1.00271522 50373
BEIDOU-2 M3 (C11)       
1 38250U 12018A   25331.29240023 -.00000039  00000+0  00000+0 0  9997
2 38250  55.9334 311.6771 0024617 273.0171  86.7042  1.86229829 92180
